NORAD_CAT_ID,OBJECT_NAME,OBJECT_TYPE,EPOCH,MEAN_MOTION,ECCENTRICITY,INCLINATION,RA_OF_ASC_NODE,ARG_OF_PERICENTER,MEAN_ANOMALY,BSTAR,MEAN_MOTION_DOT,MEAN_MOTION_DDOT,TLE_LINE0,TLE_LINE1,TLE_LINE2,SEMIMAJOR_AXIS,PERIOD,APOGEE,PERIGEE,DECAYED
49760.0,STARLINK-3199,PAYLOAD,2021-12-21 22:00:00,15.40372882,0.0001954,53.2145,227.9222,53.2571,43.2749,0.00030291,0.00012037,0.0,0 STARLINK-3199,1 49760U 21115AN  21355.91667824  .00012037  00000-0  30291-3 0  9996,2 49760  53.2145 227.9222 0001954  53.2571  43.2749 15.40372882  3389,6823.145,93.484,446.343,443.677,0.0
49760.0,STARLINK-3199,PAYLOAD,2021-12-22 06:00:00,15.40409105,0.0001952,53.2149,226.3514,52.4124,93.6125,0.00023858,9.403e-05,0.0,0 STARLINK-3199,1 49760U 21115AN  21356.25001157  .00009403  00000-0  23858-3 0  9999,2 49760  53.2149 226.3514 0001952  52.4124  93.6125 15.40409105  4234,6823.038000000001,93.482,446.235,443.571,0.0
49760.0,STARLINK-3199,PAYLOAD,2021-12-22 14:00:01,15.40400753,0.0001827,53.2149,224.7796,59.4791,136.0683,0.0015729,0.00064699,0.0,0 STARLINK-3199,1 49760U 21115AN  21356.58334491  .00064699  00000-0  15729-2 0  9990,2 49760  53.2149 224.7796 0001827  59.4791 136.0683 15.40400753  3483,6823.063,93.482,446.174,443.681,0.0
49760.0,STARLINK-3199,PAYLOAD,2021-12-22 20:00:01,15.4048505,0.0001774999999999,53.2148,223.603,52.8094,89.9433,-0.00048931,-0.00020488,0.0,0 STARLINK-3199,1 49760U 21115AN  21356.83334491 -.00020488  00000-0 -48931-3 0  9990,2 49760  53.2148 223.6030 0001775  52.8094  89.9433 15.40485050  4322,6822.814,93.477,445.89,443.468,0.0
49760.0,STARLINK-3199,PAYLOAD,2021-12-22 22:00:00,15.4048932,0.000181,53.2147,223.2108,50.948,194.2091,-0.00064229,-0.00026749,0.0,0 STARLINK-3199,1 49760U 21115AN  21356.91667824 -.00026749  00000-0 -64229-3 0  9992,2 49760  53.2147 223.2108 0001810  50.9480 194.2091 15.40489320  3537,6822.801,93.477,445.901,443.431,0.0
49760.0,STARLINK-3199,PAYLOAD,2021-12-23 14:00:01,15.40460447,0.0001515,53.2145,220.0676,54.2763,290.0976,0.00032351,0.00012922,0.0,0 STARLINK-3199,1 49760U 21115AN  21357.58334491  .00012922  00000-0  32351-3 0  9994,2 49760  53.2145 220.0676 0001515  54.2763 290.0976 15.40460447  3630,6822.886,93.479,445.785,443.718,0.0
49760.0,STARLINK-3199,PAYLOAD,2021-12-23 22:00:00,15.40473918,0.0001551,53.2147,218.4986,46.6496,347.3522,-0.0012104,-0.00049876,0.0,0 STARLINK-3199,1 49760U 21115AN  21357.91667824 -.00049876  00000-0 -12104-2 0  9993,2 49760  53.2147 218.4986 0001551  46.6496 347.3522 15.40473918  4490,6822.847,93.478,445.77,443.653,0.0
49760.0,STARLINK-3199,PAYLOAD,2021-12-24 14:00:01,15.40417216,0.0001463,53.2151,215.3555,54.4069,78.7203,0.0011157,0.00045685,0.0,0 STARLINK-3199,1 49760U 21115AN  21358.58334491  .00045685  00000-0  11157-2 0  9997,2 49760  53.2151 215.3555 0001463  54.4069  78.7203 15.40417216  4599,6823.014,93.481,445.877,443.881,0.0
49760.0,STARLINK-3199,PAYLOAD,2021-12-24 22:00:00,15.40445676,0.0001629999999999,53.2152,213.7869,46.4425,136.2419,-5.619100000000001e-05,-2.712e-05,0.0,0 STARLINK-3199,1 49760U 21115AN  21358.91667824 -.00002712  00000-0 -56191-4 0  9998,2 49760  53.2152 213.7869 0001630  46.4425 136.2419 15.40445676  3637,6822.93,93.479,445.907,443.6830000000001,0.0
49760.0,STARLINK-3199,PAYLOAD,2021-12-25 06:00:00,15.40477623,0.0001576999999999,53.2154,212.2155,46.1175,186.1352,-0.00052921,-0.00022115,0.0,0 STARLINK-3199,1 49760U 21115AN  21359.25001157 -.00022115  00000-0 -52921-3 0  9992,2 49760  53.2154 212.2155 0001577  46.1175 186.1352 15.40477623  4694,6822.8359999999975,93.478,445.777,443.625,0.0
49760.0,STARLINK-3199,PAYLOAD,2021-12-25 14:00:01,15.40471766,0.0001484,53.2158,210.6437,51.8666,229.9849,-0.00016354,-7.125e-05,0.0,0 STARLINK-3199,1 49760U 21115AN  21359.58334491 -.00007125  00000-0 -16354-3 0  9992,2 49760  53.2158 210.6437 0001484  51.8666 229.9849 15.40471766  3630,6822.853,93.478,445.73,443.705,0.0
49760.0,STARLINK-3199,PAYLOAD,2021-12-25 22:00:00,15.40455972,0.0001664,53.216,209.0751,43.5736,287.875,0.00015883,6.132e-05,0.0,0 STARLINK-3199,1 49760U 21115AN  21359.91667824  .00006132  00000-0  15883-3 0  9999,2 49760  53.2160 209.0751 0001664  43.5736 287.8750 15.40455972  3635,6822.9,93.479,445.9,443.629,0.0
49760.0,STARLINK-3199,PAYLOAD,2021-12-26 06:00:02,15.40475436,0.0001549,53.2161,207.5035,41.4499,339.6495,-0.00099993,-0.00041321,0.0,0 STARLINK-3199,1 49760U 21115AN  21360.25002315 -.00041321  00000-0 -99993-3 0  9991,2 49760  53.2161 207.5035 0001549  41.4499 339.6495 15.40475436  4853,6822.842,93.478,445.764,443.65,0.0
49760.0,STARLINK-3199,PAYLOAD,2021-12-26 14:00:01,15.40452956,0.0001508,53.2163,205.932,47.1792,23.4394,0.0007003,0.00028495,0.0,0 STARLINK-3199,1 49760U 21115AN  21360.58334491  .00028495  00000-0  70030-3 0  9996,2 49760  53.2163 205.9320 0001508  47.1792  23.4394 15.40452956  3619,6822.909000000002,93.479,445.802,443.745,0.0
49760.0,STARLINK-3199,PAYLOAD,2021-12-26 22:00:00,15.40468391,0.0001758,53.2163,204.3635,42.1318,78.0798,-0.00063693,-0.00026512,0.0,0 STARLINK-3199,1 49760U 21115AN  21360.91667824 -.00026512  00000-0 -63693-3 0  9999,2 49760  53.2163 204.3635 0001758  42.1318  78.0798 15.40468391  4959,6822.863,93.478,445.927,443.528,0.0
49760.0,STARLINK-3199,PAYLOAD,2021-12-27 14:00:01,15.40456903,0.0001657,53.216,201.2207,50.8207,168.5445,0.0004083,0.00016421,0.0,0 STARLINK-3199,1 49760U 21115AN  21361.58334491  .00016421  00000-0  40830-3 0  9998,2 49760  53.2160 201.2207 0001657  50.8207 168.5445 15.40456903  5050,6822.897,93.479,445.892,443.631,0.0
49760.0,STARLINK-3199,PAYLOAD,2021-12-27 22:00:00,15.40448424,0.0001871,53.2158,199.6521,44.4091,224.5471,0.00056301,0.00022809,0.0,0 STARLINK-3199,1 49760U 21115AN  21361.91667824  .00022809  00000-0  56301-3 0  9991,2 49760  53.2158 199.6521 0001871  44.4091 224.5471 15.40448424  3637,6822.922,93.479,446.06300000000016,443.51,0.0
49760.0,STARLINK-3199,PAYLOAD,2021-12-28 14:00:01,15.40457949,0.0001591,53.2154,196.5094,49.2211,318.9105,0.00029597,0.00011785,0.0,0 STARLINK-3199,1 49760U 21115AN  21362.58334491  .00011785  00000-0  29597-3 0  9994,2 49760  53.2154 196.5094 0001591  49.2211 318.9105 15.40457949  5210,6822.894,93.479,445.844,443.673,0.0
49760.0,STARLINK-3199,PAYLOAD,2021-12-28 22:00:00,15.4044669,0.0001786999999999,53.2153,194.9406,43.4226,14.3024,0.00077263,0.00031485,0.0,0 STARLINK-3199,1 49760U 21115AN  21362.91667824  .00031485  00000-0  77263-3 0  9992,2 49760  53.2153 194.9406 0001787  43.4226  14.3024 15.40446690  3639,6822.927,93.479,446.011,443.573,0.0
49760.0,STARLINK-3199,PAYLOAD,2021-12-29 14:00:01,15.40467689,0.0001535,53.2152,191.7976,48.2912,108.6819,-0.00029412,-0.00012481,0.0,0 STARLINK-3199,1 49760U 21115AN  21363.58335648 -.00012481  00000-0 -29412-3 0  9992,2 49760  53.2152 191.7976 0001535  48.2912 108.6819 15.40467689  5363,6822.865,93.478,445.777,443.6830000000001,0.0
49760.0,STARLINK-3199,PAYLOAD,2021-12-29 21:06:27,15.40459817,0.0001585999999999,53.2161,190.402,47.6034,312.5106,1.4979e-05,2.13e-06,0.0,0 STARLINK-3199,1 49760U 21115AN  21363.87948633  .00000213  00000-0  14979-4 0  9999,2 49760  53.2161 190.4020 0001586  47.6034 312.5106 15.40459817  4305,6822.888000000001,93.479,445.835,443.671,0.0
49760.0,STARLINK-3199,PAYLOAD,2021-12-30 14:00:01,15.40483285,0.0001558,53.2152,187.0859,46.3836,259.2836,-0.00014388,-6.32e-05,0.0,0 STARLINK-3199,1 49760U 21115AN  21364.58334491 -.00006320  00000-0 -14388-3 0  9999,2 49760  53.2152 187.0859 0001558  46.3836 259.2836 15.40483285  3630,6822.819,93.477,445.747,443.621,0.0
49760.0,STARLINK-3199,PAYLOAD,2021-12-30 20:27:50,15.40481198,0.0001520999999999,53.2172,185.8165,47.8517,312.2618,-1.8508e-05,-1.165e-05,0.0,0 STARLINK-3199,1 49760U 21115AN  21364.85266301 -.00001165  00000-0 -18508-4 0  9994,2 49760  53.2172 185.8165 0001521  47.8517 312.2618 15.40481198  4450,6822.825,93.477,445.728,443.652,0.0
49760.0,STARLINK-3199,PAYLOAD,2021-12-30 22:00:01,15.40456238,0.000175,53.2152,185.5171,39.2772,316.0694,7.250899999999999e-05,2.579e-05,0.0,0 STARLINK-3199,1 49760U 21115AN  21364.91668981  .00002579  00000-0  72509-4 0  9990,2 49760  53.2152 185.5171 0001750  39.2772 316.0694 15.40456238  5571,6822.899,93.479,445.958,443.57,0.0
49760.0,STARLINK-3199,PAYLOAD,2021-12-31 14:00:01,15.40476426,0.0001651,53.2154,182.3741,43.7995,50.6476,-0.00031539,-0.00013357,0.0,0 STARLINK-3199,1 49760U 21115AN  21365.58334491 -.00013357  00000-0 -31539-3 0  9995,2 49760  53.2154 182.3741 0001651  43.7995  50.6476 15.40476426  3655,6822.839,93.478,445.831,443.578,0.0
49760.0,STARLINK-3199,PAYLOAD,2021-12-31 21:22:39,15.40466576,0.0001704,53.2174,180.9257,46.809,313.3059,1.4787e-05,2.05e-06,0.0,0 STARLINK-3199,1 49760U 21115AN  21365.89073852  .00000205  00000-0  14787-4 0  9993,2 49760  53.2174 180.9257 0001704  46.8090 313.3059 15.40466576  4610,6822.868,93.478,445.896,443.571,0.0
49760.0,STARLINK-3199,PAYLOAD,2022-01-01 06:00:00,15.40447738,0.0001779,53.2154,179.2328,42.212,151.4371,-9.5485e-05,-4.326e-05,0.0,0 STARLINK-3199,1 49760U 21115AN  22001.25001157 -.00004326  00000-0 -95485-4 0  9994,2 49760  53.2154 179.2328 0001779  42.2120 151.4371 15.40447738  5779,6822.924,93.479,446.003,443.575,0.0
49760.0,STARLINK-3199,PAYLOAD,2022-01-01 14:00:01,15.40465313,0.0001827,53.2157,177.6626,46.1573,197.1226,-0.00035701,-0.00015058,0.0,0 STARLINK-3199,1 49760U 21115AN  22001.58335648 -.00015058  00000-0 -35701-3 0  9993,2 49760  53.2157 177.6626 0001827  46.1573 197.1226 15.40465313  3610,6822.871999999999,93.478,445.984,443.49,0.0
49760.0,STARLINK-3199,PAYLOAD,2022-01-01 22:00:00,15.4043506,0.0002054,53.2152,176.0935,40.3442,252.4663,0.0012207,0.00050083,0.0,0 STARLINK-3199,1 49760U 21115AN  22001.91667824  .00050083  00000-0  12207-2 0  9994,2 49760  53.2152 176.0935 0002054  40.3442 252.4663 15.40435060  3633,6822.9609999999975,93.48,446.228,443.425,0.0
